URI_Name,Provincia,Canton,Parroquia,Latitud,Longitud,Nombre,Direccion,Tipo,Regimen Escolar
COLEGIODEBACHILLERATO2DEAGOSTO,Loja_Province,ESPINDOLA,ELAIRO,-4,471945949890,-79,386668819200,COLEGIO DE BACHILLERATO  2 DE AGOSTO,   BARRIO LA HUACA
COLEGIODEBACHILLERATOAGUSTINCURIPOMA,Loja_Province,LOJA,GUALEL,-3,770003862500,-79,379971896200,COLEGIO DE BACHILLERATO  AGUSTIN CURIPOMA,   PARROQUIA GUALEL
COLEGIODEBACHILLERATOLATINGUE,Loja_Province,OLMEDO,LATINGUE,-3,910695867130,-79,582107878900,COLEGIO DE BACHILLERATO  LA TINGUE,   PARROQUIA LA TINGUE
COLEGIODEBACHILLERATOLICMIGUELANTOLIANOSALINASJARAMILLO,Loja_Province,QUILANGA,SANANTONIODELASARADAS,-4,364194784370,-79,398694738700,COLEGIO DE BACHILLERATO  LIC  MIGUEL ANTOLIANO SALINAS JARAMILLO,   PROLONGACION DE LA ESCALINATA DEL PARQUE CENTRAL
COLEGIODEBACHILLERATOPIOJARAMILLOALVARADO,Loja_Province,LOJA,SANSEBASTIAN,-4,3418747970,-79,202045971500,COLEGIO DE BACHILLERATO  PIO JARAMILLO ALVARADO,BOLIVAR 1479 CATACOCHA Y LOURDES 
COLEGIODEBACHILLERATOQUILANGA,Loja_Province,QUILANGA,QUILANGA,-4,294694892540,-79,401912704800,COLEGIO DE BACHILLERATO  QUILANGA,   BARRIO SANN ROQUE
COLEGIODEBACHILLERATO12DEDICIEMBRE,Loja_Province,CELICA,CELICA,-4,104940523070,-79,953472429000,COLEGIO DE BACHILLERATO 12 DE DICIEMBRE,CALLE COLON VIA A GUACHAMA 300 CALLE LOJA 
COLEGIODEBACHILLERATO14DEOCTUBRE,Loja_Province,CALVAS,ELLUCERO,-4,400078925150,-79,463218443700,COLEGIO DE BACHILLERATO 14 DE OCTUBRE,   AVENIDA ESPINDOLA  PARROQUIA EL LUCERO
COLEGIODEBACHILLERATO18DENOVIEMBRE,Loja_Province,SOZORANGA,SOZORANGA,-4,327111640320,-79,789751354400,COLEGIO DE BACHILLERATO 18 DE NOVIEMBRE,   BARRIO SAN VICENTE
COLEGIODEBACHILLERATO27DEFEBRERO,Loja_Province,LOJA,SANSEBASTIAN,-4,14502600020,-79,205164246900,COLEGIO DE BACHILLERATO 27 DE FEBRERO,PABLO PALACIO 21-51 JHON F  KENNEDY 
COLEGIODEBACHILLERATO30DESEPTIEMBRE,Loja_Province,GONZANAMA,PURUNUMA(EGUIGUREN),-4,210332743210,-79,372803646400,COLEGIO DE BACHILLERATO 30 DE SEPTIEMBRE,   TRECE DE SEPTIEMBRE
COLEGIODEBACHILLERATO8DEDICIEMBRE,Loja_Province,CATAMAYO,SANPEDRODELABENDITA,-3,944030198130,-79,435001710400,COLEGIO DE BACHILLERATO 8 DE DICIEMBRE,   LOCALIDAD SAN PEDRO DE LA BENDITA
COLEGIODEBACHILLERATOABDONCALDERONMUnOZ,Loja_Province,LOJA,SANTIAGO,-3,790059873590,-79,285336326200,COLEGIO DE BACHILLERATO ABDON CALDERON MU�OZ,   AVENIDA AMADEO AGUIRRE
COLEGIODEBACHILLERATOADOLFOVALAREZO,Loja_Province,LOJA,SUCRE,-3,993026503360,-79,209163824400,COLEGIO DE BACHILLERATO ADOLFO VALAREZO,CARLOS ROMAN HINOSTROZA  ADOLFO VALAREZO Y  MANUEL CARRION PINZANO 
COLEGIODEBACHILLERATOBALBINAMORENO,Loja_Province,GONZANAMA,GONZANAMA,-4,229190570490,-79,435529619400,COLEGIO DE BACHILLERATO BALBINA MORENO,24 DE MAYO  CALLE BOLIVAR 
COLEGIODEBACHILLERATOBEATRIZCUEVADEAYORA,Loja_Province,LOJA,ELSAGRARIO,-3,996337201380,-79,197334273800,COLEGIO DE BACHILLERATO BEATRIZ CUEVA DE AYORA,ORILLAS DEL ZAMORA 07-90 10 DE AGOSTO 
COLEGIODEBACHILLERATOCARLOSGARBAYMONTESDEOCA,Loja_Province,PUYANGO,MERCADILLO,-4,23968316620,-79,976194265700,COLEGIO DE BACHILLERATO CARLOS GARBAY MONTESDEOCA,   PARROQUIA MERCADILLO - VIA SAN JOSE
COLEGIODEBACHILLERATOCHAGUARPAMBA,Loja_Province,CHAGUARPAMBA,CHAGUARPAMBA,-3,847751497550,-79,679279685800,COLEGIO DE BACHILLERATO CHAGUARPAMBA,   BARRIO LA UNION
COLEGIODEBACHILLERATOCOMUNADOMINGUILLO,Loja_Province,CELICA,CELICA,-4,152612045580,-79,990111830200,COLEGIO DE BACHILLERATO COMUNA DOMINGUILLO,   BARRIO LAS PAMPAS
COLEGIODEBACHILLERATODOCTORBENJAMINCARRION,Loja_Province,LOJA,SUCRE,-4,8082475480,-79,205169256500,COLEGIO DE BACHILLERATO DOCTOR BENJAMIN CARRION,AV. PIO JARAMILLO  CUBA 
COLEGIODEBACHILLERATODREDUARDOMORAMORENO,Loja_Province,LOJA,CHANTACO,-3,880363687020,-79,326697673500,COLEGIO DE BACHILLERATO DR  EDUARDO MORA MORENO,   CHANTACO CENTRO  CERCA  DEL  RET�N POLICIAL
COLEGIODEBACHILLERATODRBALTAZARAGUIRRE,Loja_Province,LOJA,QUINARA,-4,317864375730,-79,235057843200,COLEGIO DE BACHILLERATO DR BALTAZAR AGUIRRE,   A DOS CUADRAS DEL PARQUE CENTRAL
COLEGIODEBACHILLERATODRCLOTARIOPAZPALADINES,Loja_Province,PINDAL,12DEDICIEMBRE,-4,71115152600,-80,90753471500,COLEGIO DE BACHILLERATO DR CLOTARIO PAZ PALADINES,   PARROQUIA   12  DE  DICIEMBRE
COLEGIODEBACHILLERATODRHUGOGUILLERMOGONZALEZ,Loja_Province,ESPINDOLA,SANTATERESITA,-4,502110000230,-79,405336177900,COLEGIO DE BACHILLERATO DR HUGO GUILLERMO GONZALEZ,   VIA PRINCIPAL CARIAMNAGA JUNTO A LA URNA  DEL DIVINO NI�O
COLEGIODEBACHILLERATODRJUANFRANCISCOONTANEDA,Loja_Province,CHAGUARPAMBA,BUENAVISTA,-3,891726687890,-79,714808547300,COLEGIO DE BACHILLERATO DR JUAN FRANCISCO ONTANEDA,   BARRIO BUENAVISTA CENTRO
COLEGIODEBACHILLERATODRMANUELAGUSTINAGUIRRE,Loja_Province,SOZORANGA,TACAMOROS,-4,395250149910,-79,764753818800,COLEGIO DE BACHILLERATO DR MANUEL AGUSTIN AGUIRRE,   BARRIO LAS DELICIAS
COLEGIODEBACHILLERATODRZOILORODRIGUEZ,Loja_Province,SOZORANGA,TACAMOROS,-4,421946453410,-79,741136237600,COLEGIO DE BACHILLERATO DR ZOILO RODRIGUEZ,   PARROQUIA TACAMOROS UBICADO   A DIEZ KILOMETROS DE FRONTERA
COLEGIODEBACHILLERATOECUADOR,Loja_Province,ESPINDOLA,27DEABRIL,-4,441865282430,-79,457059333000,COLEGIO DE BACHILLERATO ECUADOR,   VIA PRINCIPAL CARIAMANGA-AMALUZA DESVIA EN EL SITIO LAS LIMAS 3 KM
COLEGIODEBACHILLERATOEDMUNDOCEVALLOSAGUIRRE,Loja_Province,CALVAS,COLAISACA,-4,318748669630,-79,693781061700,COLEGIO DE BACHILLERATO EDMUNDO CEVALLOS AGUIRRE,   LOCALIDAD COLAISACA
COLEGIODEBACHILLERATOELCISNE,Loja_Province,LOJA,ELCISNE,-3,849497969920,-79,420221559500,COLEGIO DE BACHILLERATO EL CISNE,   VIA A GUALEL BARRIO LA CONCHA EL CISNE
COLEGIODEBACHILLERATOELLIMO,Loja_Province,PUYANGO,ELLIMO(MARIANADEJESUS),-3,986552654520,-80,138252919800,COLEGIO DE BACHILLERATO EL LIMO,   KM   11/2 VIA A MANGAHURCO MARGEN DERECHO PARROQUIA EL LIMO
COLEGIODEBACHILLERATOEMILIANOABENDAnOGONZALEZ,Loja_Province,CATAMAYO,ELTAMBO,-4,144447994380,-79,293332279400,COLEGIO DE BACHILLERATO EMILIANO ABENDA�O GONZALEZ,   Barrio La Merced Alta
COLEGIODEBACHILLERATOEMILIANOORTEGAESPINOZA,Loja_Province,CATAMAYO,CATAMAYO,-3,985779994200,-79,363361358000,COLEGIO DE BACHILLERATO EMILIANO ORTEGA ESPINOZA,DIEZ Y OCHO DE AGOSTO  OLMEDO Y EUGENIO ESPEJO 
COLEGIODEBACHILLERATOFISCOMISIONALGABRIELGARCIAMORENO,Loja_Province,ESPINDOLA,ELINGENIO,-4,410831334180,-79,432778690600,COLEGIO DE BACHILLERATO FISCOMISIONAL  GABRIEL GARCIA MORENO,   A 200M DE LA VIA AMALUZA PASANDO LA VIA PRINCIPAL A MANO IZQUIERDA
COLEGIODEBACHILLERATOFISCOMISIONALDANIELALVAREZBURNEO,Loja_Province,LOJA,VALLE,-3,987918158240,-79,201197341400,COLEGIO DE BACHILLERATO FISCOMISIONAL DANIEL ALVAREZ BURNEO,AV DANIEL ALVAREZ 12-51 AV ORILLAS DEL ZAMORA 
COLEGIODEBACHILLERATOFISCOMISIONALNUESTRASEnORADELROSARIO,Loja_Province,CATAMAYO,CATAMAYO,-3,985747544220,-79,360696025000,COLEGIO DE BACHILLERATO FISCOMISIONAL NUESTRA SE�ORA DEL ROSARIO,9 DE OCTUBRE  EUGENIO ESPEJO 
COLEGIODEBACHILLERATOGALOROLANDOVELEZRIVERA,Loja_Province,ZAPOTILLO,PALETILLAS,-4,163887930520,-80,273224758300,COLEGIO DE BACHILLERATO GALO ROLANDO VELEZ RIVERA,   PARROQUIA PALETILLAS
COLEGIODEBACHILLERATOGUILLERMOHERRERASANCHEZ,Loja_Province,LOJA,TAQUIL(MIGUELRIOFRIO),-3,893275868640,-79,290136093900,COLEGIO DE BACHILLERATO GUILLERMO HERRERA SANCHEZ,   CENTRO TAQUIL
COLEGIODEBACHILLERATOHERNANGALLARDOMOSCOSO,Loja_Province,LOJA,SUCRE,-3,983691623330,-79,236997545300,COLEGIO DE BACHILLERATO HERNAN GALLARDO MOSCOSO,AV ISIDRO AYORA  BARQUISIMETO 
COLEGIODEBACHILLERATOJOSEFELIXDEVALDIVIESO,Loja_Province,GONZANAMA,SACAPALCA,-4,153556472590,-79,517860609300,COLEGIO DE BACHILLERATO JOSE FELIX DE VALDIVIESO,   TRAS LA ESCUELA CALIXTO CUEVA SANCHEZ
COLEGIODEBACHILLERATOJOSEMARIARIOFRIOYVALDIVIEZO,Loja_Province,SOZORANGA,NUEVAFATIMA,-4,267579819490,-79,819414780300,COLEGIO DE BACHILLERATO JOSE MARIA RIOFRIO Y VALDIVIEZO,   POBLACION DE LA PARROQUIA
COLEGIODEBACHILLERATOJULIOISAACESPINOZAOCHOA,Loja_Province,PUYANGO,ALAMOR,-4,18385217620,-80,18580916600,COLEGIO DE BACHILLERATO JULIO ISAAC ESPINOZA OCHOA,CALLE SIMON BOLIVAR ENTRE SUCRE Y JUAN MONTALVO  CALLE SUCHE  Y  RIO AMAZONAS 
COLEGIODEBACHILLERATOLAVICTORIA,Loja_Province,MACARA,LAVICTORIA,-4,436721960950,-79,793251805500,COLEGIO DE BACHILLERATO LA VICTORIA,   Localidad La victoria
COLEGIODEBACHILLERATOLAUTAROVICENTELOAYZA,Loja_Province,PUYANGO,ALAMOR,-4,9143133140,-80,74888215600,COLEGIO DE BACHILLERATO LAUTARO VICENTE LOAYZA,   COMUNIDAD DE NARANJAL A 200 METROS ANTES DEL CASERIO
COLEGIODEBACHILLERATOLIBERTADORBOLIVAR,Loja_Province,LOJA,JIMBILLA,-3,859999833490,-79,169809119400,COLEGIO DE BACHILLERATO LIBERTADOR BOLIVAR,   CENTRO PARROQUIA CERCA DEL SUBCENTRO DE SALUD
COLEGIODEBACHILLERATOLICEODELOJAPARTICULAR,Loja_Province,LOJA,SANSEBASTIAN,-4,30026386360,-79,204220817000,COLEGIO DE BACHILLERATO LICEO DE LOJA PARTICULAR,NO HAY  NO HAY 
COLEGIODEBACHILLERATOMACARA,Loja_Province,MACARA,GENERALELOYALFARO(SANSEBASTIAN),-4,371474135700,-79,937308183800,COLEGIO DE BACHILLERATO MACARA,AV PANAMERICANA NORTE 01-03 VIA CARIAMANGA 
COLEGIODEBACHILLERATOMANGAHURCO,Loja_Province,ZAPOTILLO,CAZADEROS(CAB.ENMANGAURCO),-4,155613744900,-80,430775981800,COLEGIO DE BACHILLERATO MANGAHURCO,   RECINTO MANGAHURCO
COLEGIODEBACHILLERATOMANUELBENJAMINCARRION,Loja_Province,LOJA,YANGANA(ARSENIOCASTILLO),-4,363137934710,-79,177362611700,COLEGIO DE BACHILLERATO MANUEL BENJAMIN CARRION,   CENTRO DE YANGANA
COLEGIODEBACHILLERATOMANUELCARRIONPINZANO,Loja_Province,PUYANGO,VICENTINO,-3,962670273450,-79,942585323500,COLEGIO DE BACHILLERATO MANUEL CARRION PINZANO,   ANGEL LIMA ENTRE MANUEL RAMIREZ Y MIGUEL CALLE
COLEGIODEBACHILLERATOMANUELENRIQUERENGEL,Loja_Province,LOJA,ELSAGRARIO,-3,991479379610,-79,204638138300,COLEGIO DE BACHILLERATO MANUEL ENRIQUE RENGEL,AV. UNIVERSITARIA  JUAN DE SALINAS ENTRE  DIECIOCHO DE NOVIEMBRE Y AVENIDA UNIVERSIARIA 
COLEGIODEBACHILLERATOMARCOSOCHOAMUnOZ,Loja_Province,PUYANGO,CIANO,-3,945805345540,-79,997276187200,COLEGIO DE BACHILLERATO MARCOS OCHOA MU�OZ,   UBICADO EN EL BARRIO LAS COCHAS PARROQUIA CIANO
COLEGIODEBACHILLERATOMATILDEHIDALGODEPROCEL,Loja_Province,CHAGUARPAMBA,SANTARUFINA,-3,851082572380,-79,765224552200,COLEGIO DE BACHILLERATO MATILDE HIDALGO DE PROCEL,   ACCESO POR EL PUENTE DEL R�O PINDO
COLEGIODEBACHILLERATOMONSLEONIDASPROAnOVILLALBA,Loja_Province,CATAMAYO,ELTAMBO,-4,71662614330,-79,306391710600,COLEGIO DE BACHILLERATO MONS LEONIDAS PROA�O VILLALBA,   PARROQUIA EL TAMBO
COLEGIODEBACHILLERATOPARTICULARANTONIOPEnACELI,Loja_Province,LOJA,VALLE,-3,994387517180,-79,203029093000,COLEGIO DE BACHILLERATO PARTICULAR  ANTONIO PE�A CELI,BARRIO COLINAS DE BELEN  COLINAS DE BELEN 
COLEGIODEBACHILLERATOPARTICULARCORDILLERA,Loja_Province,LOJA,ELSAGRARIO,-3,996074172200,-79,201080540200,COLEGIO DE BACHILLERATO PARTICULAR CORDILLERA,BERNARDO VALDIVIESO 06-34 JOS� ANTONIO EGUIGUREN 
COLEGIODEBACHILLERATOPARTICULARDRJOSEMARIAVIVARCASTRO,Loja_Province,LOJA,SUCRE,-3,980536,-79,224648,COLEGIO DE BACHILLERATO PARTICULAR DR JOSE MARIA VIVAR CASTRO,BELEN BAJO  CHARITI Y PROLONGACION DE LA BUENA VENTURA 
COLEGIODEBACHILLERATOPARTICULAREUGENIOESPEJO,Loja_Province,LOJA,VALLE,-3,957447938720,-79,210807255900,COLEGIO DE BACHILLERATO PARTICULAR EUGENIO ESPEJO,AV. SALVADOR BUSTAMANTE CELI 00 S/N 
COLEGIODEBACHILLERATOPARTICULARIBEROAMERICANOSANAGUST�N,Loja_Province,LOJA,VALLE,-3,973193311630,-79,199473560600,COLEGIO DE BACHILLERATO PARTICULAR IBEROAMERICANO SAN AGUST�N,AGUSTIN CARRION  AVENIDA SALVADOR BUSTAMANTE CELI 
COLEGIODEBACHILLERATOPARTICULARMIGUELANGELSUAREZ,Loja_Province,LOJA,VALLE,-3,981580627790,-79,201751348800,COLEGIO DE BACHILLERATO PARTICULAR MIGUEL ANGEL SUAREZ,AV SALVADOR BUSTAMANTE CELI  AV GUAYAQUIL Y PASAJE 
COLEGIODEBACHILLERATOPARTICULARPARAPCEIDRJOSEMARIAVIVARCASTRO,Loja_Province,LOJA,SUCRE,-3,980643,-79,224691,COLEGIO DE BACHILLERATO PARTICULAR PARA PCEI DR JOSE MARIA VIVAR CASTRO,BELEN BAJO  CALLE CHARITY 0000000 BUENA VENTURA 
COLEGIODEBACHILLERATOPARTICULARPCEIAMAZONAS,Loja_Province,LOJA,ELSAGRARIO,-3,999989050690,-79,204970791400,COLEGIO DE BACHILLERATO PARTICULAR PCEI AMAZONAS,AVENIDA MANUEL AGUSTIN AGUIRRE 1063 ENTRE MIGUEL RIOFRIO Y AZUAY 
COLEGIODEBACHILLERATOPARTICULARPCEIAMAZONAS,Loja_Province,LOJA,SUCRE,-3,999861389480,-79,204484846000,COLEGIO DE BACHILLERATO PARTICULAR PCEI AMAZONAS,AV MANUEL AGUISTIN AGUIRRE 10-63 AZUAY Y MIGUEL RIOFRIO 
COLEGIODEBACHILLERATOPARTICULARPCEIISIDROAYORACUEVA,Loja_Province,LOJA,SANSEBASTIAN,-4,2499462840,-79,195222843500,COLEGIO DE BACHILLERATO PARTICULAR PCEI ISIDRO AYORA CUEVA,AV. EMILIANO ORTEGA 1101-93 LOURDES 
COLEGIODEBACHILLERATOPARTICULARSANGERARDO,Loja_Province,LOJA,SANSEBASTIAN,-4,52107090030,-79,195698823000,COLEGIO DE BACHILLERATO PARTICULAR SAN GERARDO,KM  TRES Y MEDIO   VIA VILCABAMBA 1171 SIN NOMBRE 
COLEGIODEBACHILLERATOPCEIPIOJARAMILLOALVARADO,Loja_Province,LOJA,SANSEBASTIAN,-4,3418391250,-79,201883897400,COLEGIO DE BACHILLERATO PCEI  PIO JARAMILLO ALVARADO,BOL�VAR 1479 CATACOCHA 
COLEGIODEBACHILLERATOPEDROVICTORFALCONI,Loja_Province,CATAMAYO,ZAMBI,-3,912498028020,-79,531110952400,COLEGIO DE BACHILLERATO PEDRO VICTOR FALCONI,   Calle sin nombre entrada a la parroquia Colina Alta
COLEGIODEBACHILLERATOPINDAL,Loja_Province,PINDAL,PINDAL,-4,116250852770,-80,104557955300,COLEGIO DE BACHILLERATO PINDAL,   BARRIO EL PANECILLO
COLEGIODEBACHILLERATOPRESIDENTEISIDROAYORA,Loja_Province,LOJA,SUCRE,-3,983334234820,-79,218053750300,COLEGIO DE BACHILLERATO PRESIDENTE ISIDRO AYORA,AVENIDA VIRGILIO RODAS  SIN NOMBRE 
COLEGIODEBACHILLERATOPROCERJOSEPICOITA,Loja_Province,CELICA,CRUZPAMBA,-4,161499346540,-80,857224600,COLEGIO DE BACHILLERATO PROCER JOSE PICOITA,   PARROQUIA CRUZPAMBA
COLEGIODEBACHILLERATORAFAELRODRIGUEZPALACIOS,Loja_Province,LOJA,MALACATOS(VALLADOLID),-4,219218086810,-79,258502740100,COLEGIO DE BACHILLERATO RAFAEL RODRIGUEZ PALACIOS,   VIA A MALACATOS
COLEGIODEBACHILLERATORAMONRIOFRIOBUSTAMANTE,Loja_Province,PINDAL,CHAQUINAL,-4,46448046110,-80,36580792600,COLEGIO DE BACHILLERATO RAMON RIOFRIO BUSTAMANTE,   CHAQUINAL
COLEGIODEBACHILLERATOROSAHERLINDAGARCIADEGARCIA,Loja_Province,ESPINDOLA,AMALUZA,-4,580168164590,-79,428361414700,COLEGIO DE BACHILLERATO ROSA HERLINDA GARCIA DE GARCIA,LUIS CORDERO  LUIS CORDERO 
COLEGIODEBACHILLERATORVDOJORGESANCHEZMORENO,Loja_Province,MACARA,SABIANGO(LACAPILLA),-4,367053430950,-79,812385781100,COLEGIO DE BACHILLERATO RVDO JORGE SANCHEZ MORENO,   CALLE MACARA Y AV. MACARA
COLEGIODEBACHILLERATOSANPEDRODEVILCABAMBA,Loja_Province,LOJA,SANPEDRODEVILCABAMBA,-4,238250233730,-79,217721652800,COLEGIO DE BACHILLERATO SAN PEDRO DE VILCABAMBA,   BARRIO PANECILLO
COLEGIODEBACHILLERATOSANVICENTEFERRER,Loja_Province,LOJA,CHUQUIRIBAMBA,-3,844691246550,-79,341775705000,COLEGIO DE BACHILLERATO SAN VICENTE FERRER,   BARRIO SAN VICENTE
COLEGIODEBACHILLERATOTNTEMAXIMILIANORODRIGUEZ,Loja_Province,CELICA,POZUL(SANJUANDEPOZUL),-4,116750041580,-80,59027496600,COLEGIO DE BACHILLERATO TNTE MAXIMILIANO RODRIGUEZ,   PARROQUIA POZUL
COLEGIODEBACHILLERATOTRECEDENOVIEMBRE,Loja_Province,CELICA,SABANILLA,-4,208333502330,-80,125834188900,COLEGIO DE BACHILLERATO TRECE DE NOVIEMBRE,   PARROQUIA SABANILLA
COLEGIODEBACHILLERATOVILCABAMBA,Loja_Province,LOJA,VILCABAMBA(VICTORIA),-4,261248298100,-79,219055930800,COLEGIO DE BACHILLERATO VILCABAMBA,   AV  DIEGO VACA DE VEGA  Y LA PAZ KM 1 VIA A YAMBURARA
COLEGIODEBACHILLERATOZAPOTILLO,Loja_Province,ZAPOTILLO,ZAPOTILLO,-4,385360901180,-80,243582264600,COLEGIO DE BACHILLERATO ZAPOTILLO,CALLE PALETILLAS  9 DE OCTUBRE 
COLEGIONACIONALNOCTURNOCATAMAYO,Loja_Province,CATAMAYO,CATAMAYO,-3,985309193160,-79,363083142700,COLEGIO NACIONAL NOCTURNO CATAMAYO,18 DE AGOSTO 04-55 ENTRE OLMEDO Y EUGENIO ESPEJO BARRIO EL PORVENIR 
ESCUELADEEDUCACIONBASICACABOCASTILLO,Loja_Province,ESPINDOLA,BELLAVISTA,-4,504997302730,-79,452502695800,ESCUELA DE EDUCACION BASICA CABO CASTILLO,   BARRIO JIBIRUCHE
COLEGIODEBACHILLERATOFRONTERASUR,Loja_Province,PALTAS,CANGONAMA,-3,966531349250,-79,701113150000,COLEGIO DE BACHILLERATO FRONTERA SUR,   A 50 METROS DEL PARQUE
ESCUELADEEDUCACIONBASICAGENERALMOISESOLIVA,Loja_Province,CALVAS,UTUANA,-4,362196707140,-79,724440858500,ESCUELA DE EDUCACION BASICA GENERAL MOISES OLIVA,   PARROQUIA UTUANA
ESCUELADEEDUCACI�NB�SICALAURODAMERVALAYORAN1,Loja_Province,LOJA,SANSEBASTIAN,-4,13392763880,-79,206247185700,ESCUELA DE EDUCACI�N B�SICA LAURO DAMERVAL AYORA N 1,AVENIDA BENJAMIN CARRION 21197 PABLO PALACIO 
COLEGIODEBACHILLERATOMANUELJOSEJARAMILLO,Loja_Province,PALTAS,CASANGA,-4,13860840450,-79,764669716300,COLEGIO DE BACHILLERATO MANUEL  JOSE  JARAMILLO,   CENTRO PARROQUIA CASANGA - TRAS LA IGLESIA
COLEGIODEBACHILLERATOMACANDAMINE,Loja_Province,PALTAS,CASANGA,-4,15836873880,-79,726334799900,COLEGIO DE BACHILLERATO MACANDAMINE,   BARRIO MACANDAMINE
INSTITUTOTECNOLOGICOSUPERIORCARIAMANGA,Loja_Province,CALVAS,CARIAMANGA,-4,333292134730,-79,554744698000,INSTITUTO TECNOLOGICO SUPERIOR CARIAMANGA,JOSE ANGEL PALACIOS  GONZALEZ SUARES Y  MIGUEL PERALTA 
JOSEMARIAVELAZSJEXTENSIONN2CATAMAYO,Loja_Province,CATAMAYO,CATAMAYO,-3,990003605240,-79,359057729000,JOSE MARIA VELAZ SJ EXTENSION N2 CATAMAYO,NUEVE DE OCTUBRE 00 BOLIVAR Y EUGENIO ESPEJO 
RAMONSAMANIEGOPALACIOS,Loja_Province,PUYANGO,ELARENAL,-3,961694590280,-79,986836296300,RAMON SAMANIEGO PALACIOS,   VIA PRINCIPAL DE EL ARENAL
UNIDADEDUCATIVAFISCOMISIONALDOMINGOCELI,Loja_Province,PALTAS,CATACOCHA,-4,49385996540,-79,649941486600,UNIDAD EDUCATIVA FISCOMISIONAL DOMINGO CELI,DOMINGO CELI 7302 PALTAS E INDEPENDENCIA 
TECNICOPUYANGO,Loja_Province,PUYANGO,ALAMOR,-4,16247769350,-80,23861815100,TECNICO PUYANGO,GABRIEL CAIZA  SUCRE 
U.E.ELOYALFARO,Loja_Province,CALVAS,SANVICENTE,-4,330880748470,-79,551767147900,U. E. ELOY ALFARO,   BARRIO SAN VICENTE
UNIDADEDUCATIVAPEDROVICENTEMALDONADO,Loja_Province,SARAGURO,ELPARAISODECELEN,-3,623412,-79,24087,UNIDAD EDUCATIVA PEDRO VICENTE MALDONADO,   CENTRO CELEN  VAUDILIO ARIAS Y VEINTE Y CUATRO  DE MAYO
UNIDADEDUCATIUVANAMBACOLA,Loja_Province,GONZANAMA,NAMBACOLA,-4,133852,-79,423759,UNIDAD EDUCATIUVA NAMBACOLA,   A DOSCIENTOS METROS DEL PARQUE CENTRAL
UNIDADEDUCATIVACORAZONDEMARIA,Loja_Province,LOJA,ELCISNE,-3,850611385830,-79,425666649000,UNIDAD EDUCATIVA  CORAZON DE MARIA,   JUNTO AL CAMPO MARIANO
UNIDADEDUCATIVAFISCOMISIONALJULIOERNESTOCELI,Loja_Province,ESPINDOLA,JIMBURA,-4,626669280760,-79,461389795200,UNIDAD EDUCATIVA  FISCOMISIONAL JULIO ERNESTO CELI,   CALLE 24 DE ABRIL Y AVENIDA AMALUZA
UNIDADEDUCATIVAMARIAAUXILIADORA,Loja_Province,CALVAS,CARIAMANGA,-4,327301190120,-79,557458893100,UNIDAD EDUCATIVA  MARIA AUXILIADORA,   BARRIO  CENTRAL
UNIDADEDUCATIVABERNARDOVALDIVIESO,Loja_Province,LOJA,SANSEBASTIAN,-4,9221001990,-79,200691671000,UNIDAD EDUCATIVA BERNARDO VALDIVIESO,AV. EDUARDO KINGMAN 00 PABLO NERUDA Y CATAMAYO 
UNIDADEDUCATIVABRASIL,Loja_Province,ZAPOTILLO,ZAPOTILLO,-4,382505,-80,238594,UNIDAD EDUCATIVA BRASIL,   BARRIO CEIBA CHICA
COLEGIODEBACHILLERATO29DEMAYO,Loja_Province,PALTAS,GUACHANAMA,-4,47777620680,-79,881945984700,COLEGIO DE BACHILLERATO 29 DE MAYO,   PARROQUIA GUACHANAMA BARRIO CENTRAL
UNIDADEDUCATIVACOMUNITARIAINTERCULTURALBILINGUERUMInAHUI,Loja_Province,LOJA,SANLUCAS,-3,712280517150,-79,266080840500,UNIDAD EDUCATIVA COMUNITARIA INTERCULTURAL BILINGUE RUMI�AHUI,   BARRIO PICHIG
UNIDADEDUCATIVACOTOPAXI,Loja_Province,ESPINDOLA,SANTATERESITA,-4,545530755660,-79,415361044600,UNIDAD EDUCATIVA COTOPAXI,   VIA AMALUZA CARIAMANGA BARRIO CANGOCHARA
UNIDADEDUCATIVADELMILENIO5DEJUNIO,Loja_Province,MACARA,MACARA(MANUELENRIQUERENGELSUQUILANDA),-4,385777848530,-79,952364146600,UNIDAD EDUCATIVA DEL MILENIO  5 DE JUNIO,AURIA MARIA ARIAS  MAXIMO ARTURO ROMAN Y ZOILA HERRERA 
UNIDADEDUCATIVADRMANUELAGUSTINCABRERALOZANO,Loja_Province,LOJA,SANSEBASTIAN,-4,29642462170,-79,214639849200,UNIDAD EDUCATIVA DR MANUEL AGUSTIN CABRERA LOZANO,CALLE PABLO PALACIOS  BARRIO SANTA TERESITA   SE UTILIZA LA INSTALACIONES DEL COLEGIO DE BACHILLERATO   VEINTE Y SIETE  DE 
UNIDADEDUCATIVAEXPERIMENTALPARACIEGOSLUISBRAILLE,Loja_Province,LOJA,SANSEBASTIAN,-4,14753366160,-79,199968224700,UNIDAD EDUCATIVA EXPERIMENTAL PARA CIEGOS LUIS BRAILLE,BUGANVILLAS 2427 AVENIDA GOBERNACION DE MAINAS 
COLEGIODEBACHILLERATOTCNELLAUROGUERRERO,Loja_Province,PALTAS,LAUROGUERRERO,-3,967940277540,-79,758497113200,COLEGIO DE BACHILLERATO TCNEL LAURO GUERRERO,   BARRIO EL CASTILLO
ESCUELADEEDUCACIONBASICALATACUNGA,Loja_Province,SARAGURO,LLUZHAPA,-3,501028772650,-79,339305079100,ESCUELA DE EDUCACION BASICA LATACUNGA,   PARROQUIA  LLUZHAPA
COLEGIODEBACHILLERATOSEGUNDOCUEVACELI,Loja_Province,PALTAS,LOURDES,-4,81280080960,-79,583940438300,COLEGIO DE BACHILLERATO SEGUNDO CUEVA CELI,   BARRIO SAN VICENTE DEL RIO
UNIDADEDUCATIVAFISCOMISIONALLADOLOROSA,Loja_Province,LOJA,ELSAGRARIO,-3,995392628000,-79,199551334400,UNIDAD EDUCATIVA FISCOMISIONAL LA DOLOROSA,JOSE ANTONIO EGUIGUREN 11-92 OLMEDO 
UNIDADEDUCATIVAFISCOMISIONALLAINMACULADA,Loja_Province,LOJA,ELSAGRARIO,-3,998526380730,-79,201858551200,UNIDAD EDUCATIVA FISCOMISIONAL LA INMACULADA,BOLIVAR 09-35 ROCAFUERTE Y MIGUEL RIOFRIO 
UNIDADEDUCATIVAFISCOMISIONALMARISTA,Loja_Province,MACARA,MACARA(MANUELENRIQUERENGELSUQUILANDA),-4,375554207100,-79,944169051300,UNIDAD EDUCATIVA FISCOMISIONAL MARISTA,AVENIDA PANAMERICANA 07-03 AVENIDA MARISTA 
UNIDADEDUCATIVAFISCOMISIONALMONSALBERTOZAMBRANOPALACIOS,Loja_Province,OLMEDO,OLMEDO,-3,933530207380,-79,645970264600,UNIDAD EDUCATIVA FISCOMISIONAL MONS  ALBERTO ZAMBRANO PALACIOS,MONS JORGE GUILLERMO ARMIJOS SN SUCRE 
UNIDADEDUCATIVAFISCOMISIONALPARAPCEIHNOANGELPASTRANACORRAL,Loja_Province,LOJA,VALLE,-3,987918158240,-79,201197341400,UNIDAD EDUCATIVA FISCOMISIONAL PARA PCEI HNO ANGEL PASTRANA CORRAL,JUAN DE SALINAS 03-61 JOSE FELIX DE VALDIVIESO Y QUITO 
UNIDADEDUCATIVAFISCOMISIONALMARISTADECATACOCHA,Loja_Province,PALTAS,LOURDES,-4,53198301070,-79,647305228700,UNIDAD EDUCATIVA FISCOMISIONAL MARISTA DE CATACOCHA,CALLE LOURDES 2 CALLE SUCRE 
UNIDADEDUCATIVAPALTAS,Loja_Province,PALTAS,LOURDES,-4,57003828900,-79,646028960400,UNIDAD EDUCATIVA PALTAS,VENTURA   ENCALADA Y  VIA PANAMERICANA 
ESCUELADEEDUCACIONBASICAELVIAB�LGICAJIM�NEZDEGONZ�LEZ,Loja_Province,LOJA,MALACATOS(VALLADOLID),-4,150027393010,-79,207754011600,ESCUELA DE EDUCACION BASICA ELVIA B�LGICA JIM�NEZ DE GONZ�LEZ,   BARRIO RUMIZHITANA
UNIDADEDUCATIVAMANUELJOS�RODRIGUEZ,Loja_Province,LOJA,MALACATOS(VALLADOLID),-4,216140308290,-79,269164699700,UNIDAD EDUCATIVA MANUEL JOS�  RODRIGUEZ,   BARRIO LA TRINIDAD
COLEGIODEBACHILLERATOMAN�,Loja_Province,SARAGURO,MANU,-3,485142462800,-79,413913316800,COLEGIO DE BACHILLERATO MAN�,   PACAIPAMBA VIA LOJA SN
COLEGIODEBACHILLERATOORIANGA,Loja_Province,PALTAS,ORIANGA,-3,897668216730,-79,871476291700,COLEGIO DE BACHILLERATO ORIANGA,   BARRIO PUEBLO NUEVO PARROQUIA ORIANGA  A 80M DEL SUBCENTRO DE SALUD
COLEGIODEBACHILLERATODRCARLOSMANUELESPINOZA,Loja_Province,PALTAS,SANANTONIO,-3,979668730180,-79,664528439500,COLEGIO DE BACHILLERATO  DR CARLOS MANUEL ESPINOZA,   CENTRO DE  LA PARROQUIA  DE SAN ANTONIO
UNIDADEDUCATIVACOMUNITARIAINTERCULTURALBILINGUEABC,Loja_Province,SARAGURO,SANPABLODETENTA,-3,599750648550,-79,289301887700,UNIDAD EDUCATIVA COMUNITARIA INTERCULTURAL BILINGUE ABC,   PARROQUIA TENTA BARRIO MEMBRILLO
UNIDADEDUCATIVACOMUNITARIAINTERCULTURALBILINGUETUPAKYUPANKI,Loja_Province,SARAGURO,SARAGURO,-3,648056931070,-79,210086180100,UNIDAD EDUCATIVA COMUNITARIA INTERCULTURAL BILINGUE TUPAK YUPANKI,   COMUNIDAD  O�ACAPAC
UECOMUNITARIAINTERCULTURALBILINGUEINKASAMANA,Loja_Province,SARAGURO,SARAGURO,-3,629859878640,-79,245079615300,UE COMUNITARIA INTERCULTURAL BILINGUE INKA SAMANA,   COMUNIDAD ILINCHO AYLLU LLAKTA
COLEGIODEBACHILLERATOSARAGURO,Loja_Province,SARAGURO,SARAGURO,-3,620804350560,-79,238499807000,COLEGIO DE BACHILLERATO SARAGURO,10 DE MARZO  PANAMERICANA 
COLEGIODEBACHILLERATOnUKANCHIKKAWSAYPARAPCEI,Loja_Province,SARAGURO,SARAGURO,-3,624361692040,-79,217306135700,COLEGIO DE BACHILLERATO �UKANCHIK KAWSAY PARA PCEI,   COMUNIDAD DE TUNCARTA A DIEZ MINUTOS DE LA VIA A CUENCA
UNIDADEDUCATIVAFISCOMISIONALSANJUANBAUTISTA,Loja_Province,CATAMAYO,CATAMAYO,-3,998662941580,-79,352557042200,UNIDAD EDUCATIVA FISCOMISIONAL SAN JUAN BAUTISTA,ALFREDO BAQUERIZO  DIEGO DE NOBOA 
UNIDADEDUCATIVAFISCOMISIONALSANTAJUANADEARCOLASALLE,Loja_Province,CALVAS,CARIAMANGA,-4,325507797690,-79,556047811100,UNIDAD EDUCATIVA FISCOMISIONAL SANTA JUANA DE ARCO LA SALLE,VELASCO IBARRA 00 AV.LOJA 
UNIDADEDUCATIVAFRANCISCODEORELLANA,Loja_Province,ZAPOTILLO,LIMONES,-4,388916163120,-80,359720631800,UNIDAD EDUCATIVA FRANCISCO DE ORELLANA,   PARROQUIA LIMONES
UNIDADEDUCATIVAGONZANAMA,Loja_Province,GONZANAMA,GONZANAMA,-4,231862606430,-79,437614069300,UNIDAD EDUCATIVA GONZANAMA,AVENIDA 30 DE SEPTIEMBRE  24 DE MAYO 
UNIDADEDUCATIVAGREGORIOMARAnON,Loja_Province,ZAPOTILLO,BOLASPAMBA,-4,185555417490,-80,369386458900,UNIDAD EDUCATIVA GREGORIO MARA�ON,   BARRIO BOLASPAMBA FRENTE AL DISPENSARIO DEL SSC
UNIDADEDUCATIVAJOS�MAR�ARIOFR�O,Loja_Province,ESPINDOLA,BELLAVISTA,-4,565081488340,-79,456421140300,UNIDAD EDUCATIVA JOS� MAR�A RIOFR�O,   BARRIO REINA DEL CISNE CALLE SAN FRANCISCO V�A A LLAMACHANCHI
UNIDADEDUCATIVALADOLOROSA,Loja_Province,CHAGUARPAMBA,CHAGUARPAMBA,-3,878163258490,-79,642024904100,UNIDAD EDUCATIVA LA DOLOROSA,   VIA YAGUACHI BARRIO ROJAS A OCHO CUADRAS DE LA IGLESIA MATRIZ
UNIDADEDUCATIVALAPORCIUNCULA,Loja_Province,LOJA,ELSAGRARIO,-3,995806560150,-79,202746877800,UNIDAD EDUCATIVA LA PORCIUNCULA,CALLE BOLIVAR 0639 COLON Y JOSE ANTONIO EGUIGUREN 
UNIDADEDUCATIVAMANUELIGNACIOMONTEROVALDIVIESO,Loja_Province,LOJA,SUCRE,-3,999082173290,-79,224475810700,UNIDAD EDUCATIVA MANUEL IGNACIO MONTERO VALDIVIESO,   AVENIDA  VILLONACO OBRA PIA
UNIDADEDUCATIVAFISCOMISIONALSANJOSEDECALASANZ,Loja_Province,SARAGURO,SARAGURO,-3,614134919060,-79,235947607900,UNIDAD EDUCATIVA FISCOMISIONAL SAN JOSE DE CALASANZ,   BARRIO APUGUIN
UNIDADEDUCATIVAMONSLUISALFONSOCRESPO,Loja_Province,ESPINDOLA,AMALUZA,-4,581693117110,-79,422725595900,UNIDAD EDUCATIVA MONS LUIS ALFONSO CRESPO,AVENIDA ZUMBA SN VIA  A CONSAPAMBA 
UNIDADEDUCATIVAMONSEnORSANTIAGOFERNANDEZGARC�A,Loja_Province,CALVAS,COLAISACA,-4,264975398390,-79,712863939100,UNIDAD EDUCATIVA MONSE�OR SANTIAGO FERNANDEZ GARC�A,   BARRIO CENTRAL VELAZCO IBARRA Y 18 DE NOVIEMBRE
UNIDADEDUCATIVAMUSHUKRIMAK,Loja_Province,LOJA,SANLUCAS,-3,738634821110,-79,263337741700,UNIDAD EDUCATIVA MUSHUK RIMAK,   CABECERA PARROQUIAL
UNIDADEDUCATIVAFISCOMISIONALFRAYCRIST�BALZAMBRANO,Loja_Province,SARAGURO,SARAGURO,-3,626087506970,-79,239641638800,UNIDAD EDUCATIVA FISCOMISIONAL FRAY CRIST�BAL ZAMBRANO,LOJA  CRISTOBAL ZAMBRANO 
COLEGIODEBACHILLERATOVICENTEBASTIDASREINOSO,Loja_Province,SARAGURO,SELVAALEGRE,-3,555560042600,-79,354913628100,COLEGIO DE BACHILLERATO VICENTE BASTIDAS REINOSO,   BARRIO VALLE HERMOSO
ESCUELADEEDUCACI�NB�SICAORILLASDELJUBONES,Loja_Province,SARAGURO,SUMAYPAMBA,-3,357721821420,-79,350224417900,ESCUELA DE EDUCACI�N B�SICA ORILLAS DEL JUBONES,   BARRIO SUMAYPAMBA
COLEGIOPROFESORVIRGILIOABARCAMONTESINOS,Loja_Province,SARAGURO,URDANETA(PAQUISHAPA),-3,606226242500,-79,210141490500,COLEGIO PROFESOR VIRGILIO ABARCA MONTESINOS,   PARROQUIA URDANETA
ESCUELADEEDUCACIONBASICAMARIETADEVEINTIMILLA,Loja_Province,LOJA,VALLE,-3,944304254910,-79,225331215600,ESCUELA DE EDUCACION BASICA MARIETA DE VEINTIMILLA,AV  CHUQUIRIBAMBA 00 AV  INTEGRACION BARRIAL Y  LAGUNA DE YAMBO 
I.E.ESPECIALDELOJANO.2,Loja_Province,LOJA,VALLE,-3,971886224190,-79,197198433800,I.E. ESPECIAL DE LOJA NO. 2,AGUSTIN PALACIOS 1 TRAS DEL ASILO DE ANCIANO DANIEL ALVAREZ SANCHEZ 
SERVICIOECUATORIANODECAPACITACI�NPROFESIONALSECAP,Loja_Province,LOJA,VALLE,-3,995405,-79,195399,SERVICIO ECUATORIANO DE CAPACITACI�N PROFESIONAL SECAP,GRANADA LOJA AV ISIDRO AYORA 
UNIDADEDUCFISCOMISIONALPARAPCEIJOSEMARIAVELAZEXT1LOJA,Loja_Province,LOJA,VALLE,-3,981941278420,-79,201273357900,UNIDAD EDUC FISCOMISIONAL PARA PCEI JOSE MARIA VELAZ EXT 1 LOJA,ESMERALDAS  GUAYAQUIL Y MANTA 
UNIDADEDUCATIVACOMILN5LAUROGUERRERO,Loja_Province,LOJA,VALLE,-3,948808534320,-79,217416436100,UNIDAD EDUCATIVA COMIL N 5 LAURO GUERRERO,SALVADOR BUSTAMANTE CELI  ninguna 
UNIDADEDUCATIVAFERNANDOSUAREZPALACIO,Loja_Province,LOJA,VALLE,-3,951781032850,-79,241612126800,UNIDAD EDUCATIVA FERNANDO SUAREZ PALACIO,AVENIDA PABLO PALACIO 1 SIN NOMBRE 
UNIDADEDUCATIVAFISCOMISIONALPARAPCIHERMANOANGELPASTRANA,Loja_Province,LOJA,VALLE,-3,987918158240,-79,201197341400,UNIDAD EDUCATIVA FISCOMISIONAL  PARA PCI HERMANO ANGEL PASTRANA,BERNARDO VALDIVIESO 0361 QUITO Y JOSE FELIX DE VALDIVIESO 
UNIDADEDUCATIVAFISCOMISIONALCALASANZ,Loja_Province,LOJA,VALLE,-3,976996903350,-79,202112444000,UNIDAD EDUCATIVA FISCOMISIONAL CALASANZ,AVENIDA ORILLAS DEL ZAMORA  ISIDRO AYORA 
COLEGIODEBACHILLERATOFRANCISCOVALDIVIESOALVARADO,Loja_Province,PALTAS,YAMANA,-4,3836170510,-79,698613913400,COLEGIO DE BACHILLERATO FRANCISCO VALDIVIESO ALVARADO,   AV 20  DE JULIO
UNIDADEDUCATIVAPARTICULARATENEO,Loja_Province,LOJA,ELSAGRARIO,-3,998861008450,-79,201884834100,UNIDAD EDUCATIVA PARTICULAR ATENEO,CALLE SUCRE 05-43 COL�N E IMBABAURA 
UNIDADEDUCATIVAPARTICULARJOSEANTONIOEGUIGURENLASALLE,Loja_Province,LOJA,ELSAGRARIO,-3,998277339160,-79,195529219700,UNIDAD EDUCATIVA PARTICULAR JOSE ANTONIO EGUIGUREN  LA SALLE,AVENIDA ORILLAS DEL ZAMORA 3 ROCAFUERTE 
UNIDADEDUCATIVAPARTICULARJUANMONTALVO,Loja_Province,LOJA,SANSEBASTIAN,-4,3302760020,-79,194554778800,UNIDAD EDUCATIVA PARTICULAR JUAN MONTALVO,AV. EMILIANO ORTEGA 1375 LOURDES 
UNIDADEDUCATIVASANFRANCISCODEASIS,Loja_Province,LOJA,ELSAGRARIO,-3,994529150910,-79,201642158600,UNIDAD EDUCATIVA SAN FRANCISCO DE ASIS,IMBABURA 13-46 BOLIVAR  Y BERNARDO VALDIVIESO 
UNIDADEDUCATIVASANVICENTEDEPA�L,Loja_Province,GONZANAMA,CHANGAIMINA(LALIBERTAD),-4,222472808760,-79,523892410200,UNIDAD EDUCATIVA SAN VICENTE DE PA�L,   A UNA CUADRA DEL SANTUARIO REINA DE LA CARIDAD
UNIDADEDUCATIVASANGUILLIN,Loja_Province,CALVAS,SANGUILLIN,-4,449720315060,-79,503384413400,UNIDAD EDUCATIVA SANGUILLIN,   CENTRO PARROQUIAL SANGUILLIN FRENTE AL PARQUE CENTRAL
UNIDADEDUCATIVASANTAMARIANADEJESUS,Loja_Province,LOJA,ELSAGRARIO,-3,998115770290,-79,200175679800,UNIDAD EDUCATIVA SANTA MARIANA DE JESUS,OLMEDO 0960 ROCAFUERTE Y MIGUEL RIOFRIO 
UNIDADEDUCATIVASANTAMARIANADEJESUS,Loja_Province,MACARA,MACARA(MANUELENRIQUERENGELSUQUILANDA),-4,354343123070,-79,970285834200,UNIDAD EDUCATIVA SANTA MARIANA DE JESUS,JUVENAL JARAMILLO 69-15 ALAMOR 
UNIDADEDUCATIVASANTATERESITA,Loja_Province,CELICA,CELICA,-4,103198552690,-79,956357319100,UNIDAD EDUCATIVA SANTA TERESITA,GARCIA MORENO  PRESBITERO RIOFRIO 
UNIDADEDUCATIVATIOPAMBA,Loja_Province,ESPINDOLA,AMALUZA,-4,539268285610,-79,425692805000,UNIDAD EDUCATIVA TIOPAMBA,   VIA AMALUZA A CARIAMANGA KM 8 BARRIO  TIOPAMBA
